OBJECT_NAME,OBJECT_ID,EPOCH,MEAN_MOTION,ECCENTRICITY,INCLINATION,RA_OF_ASC_NODE,ARG_OF_PERICENTER,MEAN_ANOMALY,EPHEMERIS_TYPE,CLASSIFICATION_TYPE,NORAD_CAT_ID,ELEMENT_SET_NO,REV_AT_EPOCH,BSTAR,MEAN_MOTION_DOT,MEAN_MOTION_DDOT
TANAGER-1,2024-149AR,2026-06-20T06:26:55.583232,15.44828850,.00029751,97.2525,265.5165,287.1380,72.9543,0,U,60507,999,10351,.29573761E-4,.1299E-4,0
EAGLEEYE,2024-149AS,2026-06-20T05:27:22.322016,15.71393531,.00045482,97.3718,264.7338,228.7265,131.3607,0,U,60508,999,10341,.65089614E-3,.83346E-3,0
FLOCK 4BE-29,2024-149AT,2026-06-20T05:24:57.060288,15.44226600,.00014477,97.3808,257.1444,270.6092,89.4991,0,U,60509,999,10288,.3108316E-3,.14195E-3,0
TRANSPORTER-11 OBJECT AU,2024-149AU,2026-06-19T18:52:38.259552,15.40282130,.00022433,97.3727,254.5279,273.5736,86.5253,0,U,60510,999,10271,.31132352E-3,.12458E-3,0
FLOCK 4BE-2,2024-149AV,2026-06-20T06:44:55.808736,15.53004444,.00036719,97.3829,258.6649,241.7039,118.3844,0,U,60511,999,10298,.83421888E-3,.52201E-3,0
FLOCK 4BE-13,2024-149AW,2026-06-20T04:56:44.675232,15.41954654,.00030927,97.3718,255.6488,245.1869,114.9056,0,U,60512,999,10283,.2672655E-3,.11293E-3,0
FLOCK 4BE-27,2024-149AX,2026-06-20T04:39:38.083392,15.34490425,.00023655,97.3817,253.0465,300.5586,59.5424,0,U,60513,999,10260,.23967145E-3,.7928E-4,0
FLOCK 4BE-9,2024-149AY,2026-06-20T04:58:34.127616,15.40870485,.0001427,97.3792,255.5086,270.9327,89.1756,0,U,60514,999,10278,.31633115E-3,.12909E-3,0
FLOCK 4BE-6,2024-149BA,2026-06-19T21:55:30.122112,15.39638350,.00021147,97.3787,254.5650,275.2272,84.8733,0,U,60516,999,10269,.31585845E-3,.12376E-3,0
FLOCK 4BE-14,2024-149BB,2026-06-20T05:15:59.049216,15.41070045,.000309,97.3692,255.0121,274.3618,85.7276,0,U,60517,999,10279,.3258427E-3,.1339E-3,0
FLOCK 4BE-1,2024-149BC,2026-06-19T20:13:55.701120,15.42673482,.00029228,97.3778,255.9192,275.5654,84.5260,0,U,60518,999,10278,.34673633E-3,.1504E-3,0
FLOCK 4BE-28,2024-149BD,2026-06-20T04:15:00.252864,15.44998345,.0003015,97.3744,256.9909,266.1149,93.9755,0,U,60519,999,10290,.33025212E-3,.15492E-3,0
IPERDRONE.0,2024-149BE,2026-06-20T05:51:43.500672,15.67047468,.00038873,97.3776,264.6075,217.5725,142.5264,0,U,60520,999,10339,.64580754E-3,.69059E-3,0
TRANSPORTER-11 OBJECT BF,2024-149BF,2026-06-20T05:19:40.600416,15.86087561,.00064316,97.3747,267.3993,230.2461,129.8244,0,U,60521,999,10356,.10002829E-2,.252592E-2,0
CONNECTA IOT-2,2024-149BG,2026-06-20T04:48:35.749728,15.23996059,.00052741,97.3835,249.3006,325.1773,34.9119,0,U,60522,999,10235,.14763615E-3,.3505E-4,0
CONNECTA IOT-4,2024-149BJ,2026-06-20T04:36:31.404960,15.42234365,.00041041,97.3793,255.5979,270.4483,89.6294,0,U,60524,999,10279,.39643882E-3,.16963E-3,0
ORESAT0.5,2024-149BK,2026-06-20T05:26:34.083168,15.45176617,.00042328,97.3717,257.2736,258.8825,101.1948,0,U,60525,999,10294,.35666674E-3,.16846E-3,0
DEIMOS,2024-149BL,2026-06-20T04:42:04.629888,15.44313299,.00041053,97.3776,257.3813,266.7734,93.3045,0,U,60526,999,10291,.35042916E-3,.16069E-3,0
CUAVA-2,2024-149BM,2026-06-20T05:02:14.071776,15.36174468,.00051949,97.3721,252.7343,280.5499,79.5159,0,U,60527,999,10263,.28232208E-3,.9876E-4,0
ERNST,2024-149BN,2026-06-20T05:24:19.744128,15.39275211,.00044025,97.3804,254.9677,283.3674,76.7081,0,U,60528,999,10274,.29258552E-3,.11323E-3,0
TORO,2024-149BQ,2026-06-19T18:44:14.449056,14.96432819,.00013633,97.6789,245.4002,79.8370,280.3006,0,U,60530,999,10034,.88527122E-4,.947E-5,0
HYPSO-2,2024-149BR,2026-06-20T06:31:19.676928,14.98799188,.00002462,97.6811,247.4874,82.3956,277.7295,0,U,60531,999,10051,.14949068E-3,.1743E-4,0
LEMU NGE,2024-149BS,2026-06-20T04:43:54.052032,14.94962873,.00018645,97.6842,246.0960,60.6142,299.5264,0,U,60532,999,10040,.12506325E-3,.131E-4,0
LEMUR-2-STELLA,2024-149BT,2026-06-20T04:37:15.289248,15.11860730,.00014284,97.6729,253.6607,96.0742,264.0650,0,U,60533,999,10095,.53784528E-3,.9138E-4,0
SATELIOT_2,2024-149BU,2026-06-20T04:03:39.839040,14.96373723,.00021157,97.6832,246.0708,89.9139,270.2325,0,U,60534,999,10041,.14614989E-3,.1598E-4,0
NIGHTJAR,2024-149BV,2026-06-20T04:42:13.843584,14.99028220,.00009477,97.6834,247.8615,83.6034,276.5297,0,U,60535,999,14332,.16118261E-3,.1896E-4,0
LEMUR-2-MARHISYAM,2024-149BW,2026-06-20T05:45:49.560480,15.11312446,.00033099,97.6877,254.1605,112.1725,247.9857,0,U,60536,999,10094,.52802635E-3,.8834E-4,0
SATELIOT_4,2024-149BX,2026-06-19T18:40:43.983840,14.96677581,.00030299,97.6740,245.2131,52.8583,307.2915,0,U,60537,999,10036,.86439488E-4,.929E-5,0
PICO-02A021,2024-149BY,2026-06-20T03:52:58.573056,15.03278841,.00047541,97.6753,249.9672,20.5704,339.5712,0,U,60538,999,10018,.32919725E-3,.4402E-4,0
ICEYE-X43,2024-149BZ,2026-06-20T03:57:13.696704,14.99634550,.00082954,97.6791,248.0884,76.2466,283.9680,0,U,60539,999,10056,.25550404E-3,.309E-4,0
