TANAGER-1               
1 60507U 24149AR  26171.26869888  .00001299  00000+0  29574-4 0  9991
2 60507  97.2525 265.5165 0002975 287.1380  72.9543 15.44828850103517
EAGLEEYE                
1 60508U 24149AS  26171.22734169  .00083346  00000+0  65090-3 0  9996
2 60508  97.3718 264.7338 0004548 228.7265 131.3607 15.71393531103410
FLOCK 4BE-29            
1 60509U 24149AT  26171.22566042  .00014195  00000+0  31083-3 0  9991
2 60509  97.3808 257.1444 0001447 270.6092  89.4991 15.44226600102885
TRANSPORTER-11 OBJECT AU
1 60510U 24149AU  26170.78655393  .00012458  00000+0  31132-3 0  9996
2 60510  97.3727 254.5279 0002243 273.5736  86.5253 15.40282130102713
FLOCK 4BE-2             
1 60511U 24149AV  26171.28120149  .00052201  00000+0  83422-3 0  9998
2 60511  97.3829 258.6649 0003671 241.7039 118.3844 15.53004444102985
FLOCK 4BE-13            
1 60512U 24149AW  26171.20607263  .00011293  00000+0  26727-3 0  9999
2 60512  97.3718 255.6488 0003092 245.1869 114.9056 15.41954654102832
FLOCK 4BE-27            
1 60513U 24149AX  26171.19419078  .00007928  00000+0  23967-3 0  9996
2 60513  97.3817 253.0465 0002365 300.5586  59.5424 15.34490425102605
FLOCK 4BE-9             
1 60514U 24149AY  26171.20733944  .00012909  00000+0  31633-3 0  9994
2 60514  97.3792 255.5086 0001427 270.9327  89.1756 15.40870485102786
FLOCK 4BE-6             
1 60516U 24149BA  26170.91354308  .00012376  00000+0  31586-3 0  9991
2 60516  97.3787 254.5650 0002114 275.2272  84.8733 15.39638350102697
FLOCK 4BE-14            
1 60517U 24149BB  26171.21943344  .00013390  00000+0  32584-3 0  9996
2 60517  97.3692 255.0121 0003090 274.3618  85.7276 15.41070045102797
FLOCK 4BE-1             
1 60518U 24149BC  26170.84300580  .00015040  00000+0  34674-3 0  9990
2 60518  97.3778 255.9192 0002922 275.5654  84.5260 15.42673482102780
FLOCK 4BE-28            
1 60519U 24149BD  26171.17708626  .00015492  00000+0  33025-3 0  9991
2 60519  97.3744 256.9909 0003015 266.1149  93.9755 15.44998345102907
IPERDRONE.0             
1 60520U 24149BE  26171.24425348  .00069059  00000+0  64581-3 0  9997
2 60520  97.3776 264.6075 0003887 217.5725 142.5264 15.67047468103397
TRANSPORTER-11 OBJECT BF
1 60521U 24149BF  26171.22199769  .00252592  00000+0  10003-2 0  9996
2 60521  97.3747 267.3993 0006431 230.2461 129.8244 15.86087561103566
CONNECTA IOT-2          
1 60522U 24149BG  26171.20041377  .00003505  00000+0  14764-3 0  9993
2 60522  97.3835 249.3006 0005274 325.1773  34.9119 15.23996059102359
CONNECTA IOT-4          
1 60524U 24149BJ  26171.19203015  .00016963  00000+0  39644-3 0  9998
2 60524  97.3793 255.5979 0004104 270.4483  89.6294 15.42234365102798
ORESAT0.5               
1 60525U 24149BK  26171.22678337  .00016846  00000+0  35667-3 0  9997
2 60525  97.3717 257.2736 0004232 258.8825 101.1948 15.45176617102948
DEIMOS                  
1 60526U 24149BL  26171.19588692  .00016069  00000+0  35043-3 0  9993
2 60526  97.3776 257.3813 0004105 266.7734  93.3045 15.44313299102912
CUAVA-2                 
1 60527U 24149BM  26171.20988509  .00009876  00000+0  28232-3 0  9997
2 60527  97.3721 252.7343 0005194 280.5499  79.5159 15.36174468102636
ERNST                   
1 60528U 24149BN  26171.22522852  .00011323  00000+0  29259-3 0  9995
2 60528  97.3804 254.9677 0004402 283.3674  76.7081 15.39275211102746
TORO                    
1 60530U 24149BQ  26170.78072279  .00000947  00000+0  88527-4 0  9995
2 60530  97.6789 245.4002 0001363  79.8370 280.3006 14.96432819100340
HYPSO-2                 
1 60531U 24149BR  26171.27175552  .00001743  00000+0  14949-3 0  9990
2 60531  97.6811 247.4874 0000246  82.3956 277.7295 14.98799188100510
LEMU NGE                
1 60532U 24149BS  26171.19715338  .00001310  00000+0  12506-3 0  9991
2 60532  97.6842 246.0960 0001864  60.6142 299.5264 14.94962873100404
LEMUR-2-STELLA          
1 60533U 24149BT  26171.19253807  .00009138  00000+0  53785-3 0  9990
2 60533  97.6729 253.6607 0001428  96.0742 264.0650 15.11860730100951
SATELIOT_2              
1 60534U 24149BU  26171.16921110  .00001598  00000+0  14615-3 0  9998
2 60534  97.6832 246.0708 0002115  89.9139 270.2325 14.96373723100412
NIGHTJAR                
1 60535U 24149BV  26171.19599356  .00001896  00000+0  16118-3 0  9996
2 60535  97.6834 247.8615 0000947  83.6034 276.5297 14.99028220143323
LEMUR-2-MARHISYAM       
1 60536U 24149BW  26171.24015695  .00008834  00000+0  52803-3 0  9992
2 60536  97.6877 254.1605 0003309 112.1725 247.9857 15.11312446100947
SATELIOT_4              
1 60537U 24149BX  26170.77828685  .00000929  00000+0  86439-4 0  9991
2 60537  97.6740 245.2131 0003029  52.8583 307.2915 14.96677581100360
PICO-02A021             
1 60538U 24149BY  26171.16178904  .00004402  00000+0  32920-3 0  9993
2 60538  97.6753 249.9672 0004754  20.5704 339.5712 15.03278841100187
ICEYE-X43               
1 60539U 24149BZ  26171.16474186  .00003090  00000+0  25550-3 0  9998
2 60539  97.6791 248.0884 0008295  76.2466 283.9680 14.99634550100567
